FENGYUN 1C DEB          
1 30026U 99025NB  22227.72863619  .00024767  00000+0  12651-2 0  9995
2 30026  99.1216 321.6310 0086755 196.1868 163.6584 15.13410055840726
FENGYUN 1C DEB          
1 30028U 99025ND  22227.74886788  .00001197  00000+0  27093-3 0  9990
2 30028  98.1345 244.9353 0198380  10.5889  48.0856 14.46578888821095
FENGYUN 1C DEB          
1 30030U 99025NF  22227.57594967  .00005513  00000+0  85181-3 0  9997
2 30030  99.6963 143.4491 0109627  34.2256 326.5948 14.69844390827915
FENGYUN 1C DEB          
1 30031U 99025NG  22226.89862056  .00021539  00000+0  20711-2 0  9992
2 30031  99.1906 206.5811 0059411 348.9587  11.0319 14.91703289831034
FENGYUN 1C DEB          
1 30032U 99025NH  22227.28715817  .00010644  00000+0  98578-3 0  9991
2 30032  97.3318 346.8240 0197680 194.6589 164.8843 14.80935704830524
FENGYUN 1C DEB          
1 30035U 99025NL  22227.40961352  .00000021  00000+0  23988-4 0  9997
2 30035  99.3406  26.7207 0116238 353.3017  34.9017 14.36068940816753
FENGYUN 1C DEB          
1 30036U 99025NM  22227.80129479  .00000566  00000+0  15605-3 0  9998
2 30036  98.3945 268.1010 0208549 280.4581 137.9521 14.38914869816653
FENGYUN 1C DEB          
1 30037U 99025NN  22227.75861470  .00000273  00000+0  99718-4 0  9990
2 30037  98.2926 234.1878 0180925  70.5388 103.8873 14.31563813813906
FENGYUN 1C DEB          
1 30038U 99025NP  22227.85126365  .00000525  00000+0  13550-3 0  9998
2 30038  98.3182 237.3175 0275096 141.2035 341.9669 14.33730924814513
FENGYUN 1C DEB          
1 30039U 99025NQ  22227.76171653  .00003315  00000+0  75790-3 0  9993
2 30039  97.0327 332.4439 0134491  54.6915  96.8484 14.50744260817283
FENGYUN 1C DEB          
1 30040U 99025NR  22227.45746556  .00001194  00000+0  54312-3 0  9991
2 30040  98.3332 288.2266 0039875 312.0252 164.4440 14.23064047805702
FENGYUN 1C DEB          
1 30041U 99025NS  22227.74843505  .00000233  00000+0  15836-3 0  9997
2 30041  99.5618 247.7291 0035905 348.4139  70.9508 14.10421927801452
FENGYUN 1C DEB          
1 30043U 99025NU  22227.31782236  .00000610  00000+0  21851-3 0  9998
2 30043  98.5812 344.2659 0318893  35.4456 326.7460 14.12691764801241
FENGYUN 1C DEB          
1 30044U 99025NV  22227.34841532  .00001796  00000+0  72779-3 0  9998
2 30044  98.1537 191.6988 0119308 212.9810 146.3889 14.25024876805992
FENGYUN 1C DEB          
1 30045U 99025NW  22227.66098161  .00001554  00000+0  92082-3 0  9997
2 30045  99.1822 213.7948 0115354 284.4556 122.3159 14.05934207795281
FENGYUN 1C DEB          
1 30047U 99025NY  22227.61946757  .00000388  00000+0  32803-3 0  9996
2 30047  99.8933 288.5903 0130230 305.4205 220.0161 13.90819361790054
FENGYUN 1C DEB          
1 30048U 99025NZ  22227.79731855  .00000104  00000+0  12496-3 0  9999
2 30048  98.7040 173.3846 0188256 276.3683 111.1878 13.78656744783783
FENGYUN 1C DEB          
1 30050U 99025PB  22227.47000318  .00000431  00000+0  38610-3 0  9999
2 30050  96.8288 145.0987 0175980 246.4690 176.8634 13.80920862784065
FENGYUN 1C DEB          
1 30052U 99025PD  22227.57354361  .00000340  00000+0  31528-3 0  9992
2 30052  99.4407 264.2521 0296003 162.4027 351.5218 13.70729266778942
FENGYUN 1C DEB          
1 30053U 99025PE  22227.40218024  .00002322  00000+0  13065-2 0  9997
2 30053  98.6502 119.1482 0380457  68.6731 352.1899 13.80331244781458
FENGYUN 1C DEB          
1 30054U 99025PF  22227.37682968  .00000268  00000+0  28250-3 0  9996
2 30054  99.5271 266.8571 0280797 270.8697 156.1319 13.67740238777226
FENGYUN 1C DEB          
1 30056U 99025PH  22227.34335652  .00000849  00000+0  77099-3 0  9990
2 30056  98.3513 195.3682 0321650 225.1777 132.2815 13.64880971773430
FENGYUN 1C DEB          
1 30057U 99025PJ  22227.44141934  .00000421  00000+0  51749-3 0  9990
2 30057  98.8417  41.3207 0303285  32.9018 356.9635 13.52551678767814
FENGYUN 1C DEB          
1 30058U 99025PK  22227.54731704  .00000371  00000+0  51168-3 0  9991
2 30058  99.7142 255.1467 0320233 281.8567 235.7803 13.45964728764879
FENGYUN 1C DEB          
1 30059U 99025PL  22227.82784907  .00000113  00000+0  18185-3 0  9992
2 30059  98.8897 347.3291 0330680 138.3569  12.2719 13.44561353764770
FENGYUN 1C DEB          
1 30060U 99025PM  22227.40708734  .00000608  00000+0  84133-3 0  9997
2 30060  99.3338 168.7265 0356105 204.6975 287.8965 13.38665045759528
FENGYUN 1C DEB          
1 30061U 99025PN  22227.64831757  .00001385  00000+0  17842-2 0  9991
2 30061 101.8791 106.6391 0385870 109.0714 281.3775 13.37684669758015
FENGYUN 1C DEB          
1 30062U 99025PP  22227.85154031  .00000064  00000+0  66037-4 0  9993
2 30062  98.8573 254.2118 0049672 215.2328 319.9092 14.04704856798384
FENGYUN 1C DEB          
1 30063U 99025PQ  22227.87162128  .00000021  00000+0  32018-4 0  9997
2 30063  98.4882 249.6226 0033231  32.8519  90.3027 14.14949335804819
FENGYUN 1C DEB          
1 30064U 99025PR  22227.82230935  .00000116  00000+0  84013-4 0  9992
2 30064  98.7512 255.9321 0066479 337.1184 199.4047 14.12949041803418
FENGYUN 1C DEB          
1 30065U 99025PS  22227.09143714  .00000051  00000+0  72200-4 0  9993
2 30065  98.7049 273.5585 0133070 109.5725 251.9855 13.86235092788255
FENGYUN 1C DEB          
1 30066U 99025PT  22227.78123274  .00000079  00000+0  55064-4 0  9998
2 30066  98.5983 238.2110 0120342 163.3836  10.5651 14.17678291806141
FENGYUN 1C DEB          
1 30067U 99025PU  22227.76024486  .00000398  00000+0  12607-3 0  9991
2 30067  98.8956  56.2997 0163511  28.0223  32.9949 14.38640489817015
FENGYUN 1C DEB          
1 30068U 99025PV  22227.85565193  .00000026  00000+0  32513-4 0  9994
2 30068  98.6847 236.1197 0193182 201.3946 157.9070 14.10547616802193
FENGYUN 1C DEB          
1 30069U 99025PW  22227.81490134 -.00000095  00000+0 -33418-4 0  9996
2 30069  98.7358 237.0408 0048999 217.5910 317.2364 14.03575979797940
FENGYUN 1C DEB          
1 30070U 99025PX  22227.88930245  .00004224  00000+0  17487-2 0  9999
2 30070  98.2681  18.9879 0388935 157.7774 355.8503 13.93150462788705
FENGYUN 1C DEB          
1 30071U 99025PY  22227.68138493  .00001948  00000+0  78869-3 0  9995
2 30071  98.7150 299.6163 0060750 113.2082  45.3433 14.27895240807698
FENGYUN 1C DEB          
1 30072U 99025PZ  22227.72821078  .00001931  00000+0  10277-2 0  9999
2 30072  99.0685 323.9961 0087091 151.2262 209.3753 14.12701967798942
FENGYUN 1C DEB          
1 30073U 99025QA  22227.72102825  .00001070  00000+0  65149-3 0  9995
2 30073  99.3740 128.6613 0065522  62.4541 320.7195 14.07399428797755
FENGYUN 1C DEB          
1 30074U 99025QB  22227.56715881  .00000980  00000+0  61707-3 0  9995
2 30074  99.2238 258.1197 0105706 296.5160  62.5198 14.04090911795618
FENGYUN 1C DEB          
1 30075U 99025QC  22227.84532500  .00000155  00000+0  15325-3 0  9991
2 30075  99.4934 240.2111 0091065 205.1867 279.9382 13.91872226791600
FENGYUN 1C DEB          
1 30076U 99025QD  22227.49035299  .00000123  00000+0  15309-3 0  9993
2 30076  99.1951 239.2099 0178211  58.5991 107.8247 13.75073709781853
FENGYUN 1C DEB          
1 30077U 99025QE  22227.84585537  .00000118  00000+0  96833-4 0  9994
2 30077  98.8710 258.9452 0022540  80.3641  92.7528 14.06813953800294
FENGYUN 1C DEB          
1 30078U 99025QF  22227.69553189  .00001218  00000+0  68762-3 0  9997
2 30078  98.9333 290.2957 0064090 138.9595  18.7501 14.11114090799131
FENGYUN 1C DEB          
1 30079U 99025QG  22227.11701824  .00000407  00000+0  30238-3 0  9992
2 30079  99.2149 268.8465 0082747  48.8468 334.9076 13.99284984795280
FENGYUN 1C DEB          
1 30080U 99025QH  22227.37772063  .00000080  00000+0  65039-4 0  9990
2 30080  98.6337 237.9811 0134407 270.6384 141.2865 14.09117451801121
FENGYUN 1C DEB          
1 30081U 99025QJ  22227.84283528  .00000001  00000+0  30605-4 0  9990
2 30081  98.9258 244.1344 0078939  89.4168  86.7756 13.96558783793877
FENGYUN 1C DEB          
1 30082U 99025QK  22227.64750791  .00003855  00000+0  50393-3 0  9995
2 30082  98.8442 355.7478 0157227 104.2877  20.5877 14.72811046832121
FENGYUN 1C DEB          
1 30085U 99025QN  22227.39855561  .00030065  00000+0  16523-2 0  9990
2 30085  98.3853 160.0048 0068765  83.7758 277.1297 15.11999974836358
FENGYUN 1C DEB          
1 30086U 99025QP  22227.76888708  .00000186  00000+0  14940-3 0  9994
2 30086  99.0500 262.2483 0061890 269.5127 155.6011 14.01822675796620
FENGYUN 1C DEB          
1 30087U 99025QQ  22227.56551532  .00000557  00000+0  16545-3 0  9990
2 30087  98.5392 270.5475 0243328 129.2115  37.2520 14.31287742812884
FENGYUN 1C DEB          
1 30088U 99025QR  22227.03099216  .00000303  00000+0  10519-3 0  9993
2 30088  98.3135 242.0771 0214335 268.5423 115.4377 14.30699852812614
FENGYUN 1C DEB          
1 30089U 99025QS  22227.59305392  .00000220  00000+0  10452-3 0  9994
2 30089  99.0348  83.5383 0077078 135.8220 243.4392 14.27902435811256
FENGYUN 1C DEB          
1 30090U 99025QT  22227.44438837  .00000215  00000+0  11197-3 0  9992
2 30090  99.3496 301.0629 0061567 343.8890 144.7761 14.24667061809425
FENGYUN 1C DEB          
1 30092U 99025QV  22227.31853899  .00000672  00000+0  25368-3 0  9991
2 30092  98.7956 356.6300 0091753 224.4191 163.2169 14.32355327813129
FENGYUN 1C DEB          
1 30093U 99025QW  22227.45856383  .00000792  00000+0  28934-3 0  9993
2 30093  98.9357  38.4432 0080378 324.6289  60.2311 14.34144946813311
FENGYUN 1C DEB          
1 30094U 99025QX  22227.17748363  .00010762  00000+0  14909-2 0  9995
2 30094  98.9927 313.2498 0039791 268.8224  90.8425 14.77659351823529
FENGYUN 1C DEB          
1 30095U 99025QY  22227.77187481  .00002591  00000+0  47099-3 0  9998
2 30095  99.2344 349.1165 0275214  56.0875 306.6160 14.45497443815934
FENGYUN 1C DEB          
1 30096U 99025QZ  22227.41063574  .00000295  00000+0  13192-3 0  9992
2 30096  99.2413 220.5228 0083881 138.2857 222.4760 14.28587185811766
FENGYUN 1C DEB          
1 30099U 99025RC  22227.68430627  .00000319  00000+0  15670-3 0  9991
2 30099  98.6358 310.7166 0064519 182.5601 336.5202 14.23211299808915
